#aV2024  2 18  0  0  0.00000000     288 DD+AD WGS84 FIT  NGA
## 2302      0.00000000   300.00000000 60358 0.0000000000000
+   32     1  2  3  4  5  6  7  8  9 10 11 12 13 14 15 16 17
+         18 19 20 21 22 23 24 25 26 27 28 29 30 31 32  0  0
+          0  0  0  0  0  0  0  0  0  0  0  0  0  0  0  0  0
+          0  0  0  0  0  0  0  0  0  0  0  0  0  0  0  0  0
+          0  0  0  0  0  0  0  0  0  0  0  0  0  0  0  0  0
++         2  2  2  2  2  2  2  2  2  2  2  2  2  2  2  2  2
++         2  2  2  2  2  2  2  2  2  2  2  2  2  2  2  0  0
++         0  0  0  0  0  0  0  0  0  0  0  0  0  0  0  0  0
++         0  0  0  0  0  0  0  0  0  0  0  0  0  0  0  0  0
++         0  0  0  0  0  0  0  0  0  0  0  0  0  0  0  0  0
%c cc cc ccc ccc cccc cccc cccc cccc ccccc ccccc ccccc ccccc
%c cc cc ccc ccc cccc cccc cccc cccc ccccc ccccc ccccc ccccc
%f  0.0000000  0.000000000  0.00000000000  0.000000000000000
%f  0.0000000  0.000000000  0.00000000000  0.000000000000000
%i    0    0    0    0      0      0      0      0         0
%i    0    0    0    0      0      0      0      0         0
/*      NGA, ST. LOUIS,MO.                                  
/*   EPHEMERIS COMPUTED FROM 2 DAYS OF DATA                 
/*   EPOCHA v9 SMOOTHER                                     
/*   G2296 IERS2010 SATIGS SATAPC                           
*  2024  2 18 11 15  0.00000000
P  1 -20491.832779  -9071.351475  14178.703445    170.045522                    
V  1 -11246.694064 -14627.162666 -24694.374665      0.015961                    
P  2 -22097.706443 -13308.958436   7356.453526   -483.568354                    
V  2  -4906.490603  -7402.265350 -29920.375308      0.059297                    
P  3 -13755.323583  -5146.516722  21990.846390    200.832268                    
V  3   8408.030145 -26917.352128   -918.266116      0.238813                    
P  4 -24256.841594  -2851.054835  10613.999480    294.668026                    
V  4  12742.256717  -4734.559775  27755.750791      0.093668                    
P  5   8388.352007  17538.359952 -18225.777004   -162.262846                    
V  5  -7070.141141  21729.713190  17913.126855     -0.013870                    
P  6   -269.131407  18441.406041  19137.642407    402.325537                    
V  6 -16918.716678 -17223.753944  16523.081156     -0.150517                    
P  7 -16774.030491   2923.041050 -20008.172268    -64.813705                    
V  7 -17241.915221 -20045.946130  10787.677785     -0.090097                    
P  8 -18921.498118  -7703.478445 -17291.797723   -167.619951                    
V  8  20528.962438  -6971.601219 -19044.301418     -0.018682                    
P  9 -25400.542746   7693.306909  -1749.269554     96.207641                    
V  9  -2753.567152  -2238.636372  31554.500603      0.127614                    
P 10  10657.475652 -23611.343024  -4814.846672      0.920593                    
V 10    375.626738   6834.057270 -31655.654363      0.010239                    
P 11   9722.960841  22535.096321  10237.967130   -579.852501                    
V 11 -10092.198860  -8419.270744  28138.147469     -0.126979                    
P 12  13539.542693   6632.176011  21582.211257   -479.162503                    
V 12 -10234.537339  26152.012087  -1529.987195     -0.037001                    
P 13   9749.681552  13532.364354 -20923.214318    626.638689                    
V 13 -25875.845018   2816.229492 -10118.993637      0.034961                    
P 14 -13478.918853  21203.002023  -8290.449529    328.905171                    
V 14    383.770523 -11095.799265 -29109.089492      0.099597                    
P 15  19454.537155   6298.544140 -17546.074493    128.955607                    
V 15 -19187.874526   9525.637641 -18167.951376      0.039468                    
P 16  -2347.411790 -21830.259374 -14945.578764   -360.006863                    
V 16   9075.933932 -16362.982510  23438.534755      0.083801                    
P 17 -18658.349537  12975.758094  14294.445550    716.597492                    
V 17 -17396.642067   1142.271466 -24327.408650     -0.012248                    
P 18  15554.012762  -4132.413834 -21147.897994   -558.204927                    
V 18  17444.402919  20365.031581   8665.145622     -0.082389                    
P 19  -9764.050478  14670.898627  19568.144112    442.350017                    
V 19 -25326.018247   1663.329108 -14104.988327      0.053024                    
P 20   1857.306485  25605.122508  -7072.954293    387.048617                    
V 20  -3908.777183   8612.483393  29730.336425     -0.014247                    
P 21 -21125.182551 -16882.735556   2284.910399    134.495785                    
V 21   -390.654790  -2914.384602 -30970.425597     -0.013817                    
P 22 -10104.832974  24733.318087     91.228190     29.256758                    
V 22  -2208.068274  -1336.256614 -31584.098585     -0.061791                    
P 23  15162.949327 -14957.926131 -15723.997559    158.763157                    
V 23  -3706.778785  19776.756447 -22537.033500      0.081405                    
P 24  21575.795826  15220.226984   4074.989221   -433.676740                    
V 24   2013.055298   6205.712442 -30322.188346     -0.061125                    
P 25  16341.276614  -5745.261796  19719.355970    488.945855                    
V 25  -5879.040713  25265.827398  12292.859737      0.011518                    
P 26   2825.485030 -25924.788683  -3998.554585    188.929306                    
V 26   4983.901118  -3972.291610  30767.374224     -0.040666                    
P 27  -6452.061397 -14091.875432 -21877.665907     -5.079245                    
V 27  26342.420764  -6267.594620  -3354.250576     -0.032623                    
P 28   2549.471801 -17259.125588  20006.672870   -135.139383                    
V 28  18699.159931  17295.250125  12518.792412     -0.128705                    
P 29  26290.320154  -4143.059367   -328.828598   -606.731938                    
V 29    697.471455   2269.161540  31951.930559      0.007952                    
P 30  -8695.955302  13444.302819 -21033.386429   -431.000364                    
V 30 -18899.818211 -19489.644710  -4883.122499      0.049997                    
P 31  -5679.503253 -21444.418345  14090.233807   -227.806581                    
V 31  14191.306653  12044.403861  24094.092394     -0.001123                    
P 32  14895.790033 -15075.506223  16080.076790   -612.256301                    
V 32  20039.605211  -2746.620638 -21609.747880     -0.019400                    
EOF
